$$SOE
2459580.500000000, A.D. 2022-Jan-01 00:00:00.0000, -6.921392272327962E+08, 9.005372241606837E+06, 4.977472613506803E+07,
2459587.500000000, A.D. 2022-Jan-08 00:00:00.0000, -6.919426376983966E+08, 1.393794163950946E+06, 4.950018511869828E+07,
2459594.500000000, A.D. 2022-Jan-15 00:00:00.0000, -6.916454866298914E+08, -6.217976531917758E+06, 4.921844661124018E+07,
2459601.500000000, A.D. 2022-Jan-22 00:00:00.0000, -6.912476869895153E+08, -1.382883309570967E+07, 4.892954222154641E+07,
2459608.500000000, A.D. 2022-Jan-29 00:00:00.0000, -6.907491582299234E+08, -2.143766350315340E+07, 4.863350426709083E+07,
2459615.500000000, A.D. 2022-Feb-05 00:00:00.0000, -6.901498285535662E+08, -2.904335103565383E+07, 4.833036592864604E+07,
2459622.500000000, A.D. 2022-Feb-12 00:00:00.0000, -6.894496350036012E+08, -3.664477592801245E+07, 4.802016112027921E+07,
2459629.500000000, A.D. 2022-Feb-19 00:00:00.0000, -6.886485227106861E+08, -4.424081571498553E+07, 4.770292438965000E+07,
2459636.500000000, A.D. 2022-Feb-26 00:00:00.0000, -6.877464446066623E+08, -5.183034499977821E+07, 4.737869090958438E+07,
2459643.500000000, A.D. 2022-Mar-05 00:00:00.0000, -6.867433614457545E+08, -5.941223526148000E+07, 4.704749649562472E+07,
2459650.500000000, A.D. 2022-Mar-12 00:00:00.0000, -6.856392419114025E+08, -6.698535476719354E+07, 4.670937762353805E+07,
2459657.500000000, A.D. 2022-Mar-19 00:00:00.0000, -6.844340627376069E+08, -7.454856856084381E+07, 4.636437144224614E+07,
2459664.500000000, A.D. 2022-Mar-26 00:00:00.0000, -6.831278088224653E+08, -8.210073853462516E+07, 4.601251577934852E+07,
2459671.500000000, A.D. 2022-Apr-02 00:00:00.0000, -6.817204732662810E+08, -8.964072363886631E+07, 4.565384912820063E+07,
2459678.500000000, A.D. 2022-Apr-09 00:00:00.0000, -6.802120570624009E+08, -9.716738022532351E+07, 4.528841059177811E+07,
2459685.500000000, A.D. 2022-Apr-16 00:00:00.0000, -6.786025680837579E+08, -1.046795618696131E+08, 4.491623980384626E+07,
2459692.500000000, A.D. 2022-Apr-23 00:00:00.0000, -6.768920206339831E+08, -1.121761175883982E+08, 4.453737703229123E+07,
2459699.500000000, A.D. 2022-Apr-30 00:00:00.0000, -6.750804374334261E+08, -1.196558906966660E+08, 4.415186345257793E+07,
2459706.500000000, A.D. 2022-May-07 00:00:00.0000, -6.731678509778433E+08, -1.271177202785976E+08, 4.375974114910200E+07,
2459713.500000000, A.D. 2022-May-14 00:00:00.0000, -6.711543028804321E+08, -1.345604422335104E+08, 4.336105296527164E+07,
2459720.500000000, A.D. 2022-May-21 00:00:00.0000, -6.690398432279731E+08, -1.419828891380525E+08, 4.295584245060449E+07,
2459727.500000000, A.D. 2022-May-28 00:00:00.0000, -6.668245304298245E+08, -1.493838898835680E+08, 4.254415387039999E+07,
2459734.500000000, A.D. 2022-Jun-04 00:00:00.0000, -6.645084312828376E+08, -1.567622694015322E+08, 4.212603222703116E+07,
2459741.500000000, A.D. 2022-Jun-11 00:00:00.0000, -6.620916211076756E+08, -1.641168484747850E+08, 4.170152327981646E+07,
2459748.500000000, A.D. 2022-Jun-18 00:00:00.0000, -6.595741839179112E+08, -1.714464436211023E+08, 4.127067356107394E+07,
2459755.500000000, A.D. 2022-Jun-25 00:00:00.0000, -6.569562125924733E+08, -1.787498670820788E+08, 4.083353038302988E+07,
2459762.500000000, A.D. 2022-Jul-02 00:00:00.0000, -6.542378089173998E+08, -1.860259269828679E+08, 4.039014181801763E+07,
2459769.500000000, A.D. 2022-Jul-09 00:00:00.0000, -6.514190831065913E+08, -1.932734274856301E+08, 3.994055663075799E+07,
2459776.500000000, A.D. 2022-Jul-16 00:00:00.0000, -6.485001528566464E+08, -2.004911678537723E+08, 3.948482425641581E+07,
2459783.500000000, A.D. 2022-Jul-23 00:00:00.0000, -6.454811441340536E+08, -2.076779403493646E+08, 3.902299503259499E+07,
2459790.500000000, A.D. 2022-Jul-30 00:00:00.0000, -6.423621936109166E+08, -2.148325303179743E+08, 3.855512040368553E+07,
2459797.500000000, A.D. 2022-Aug-06 00:00:00.0000, -6.391434491509047E+08, -2.219537178128670E+08, 3.808125282069211E+07,
2459804.500000000, A.D. 2022-Aug-13 00:00:00.0000, -6.358250691686027E+08, -2.290402780039683E+08, 3.760144563741205E+07,
2459811.500000000, A.D. 2022-Aug-20 00:00:00.0000, -6.324072224313649E+08, -2.360909808750652E+08, 3.711575310599878E+07,
2459818.500000000, A.D. 2022-Aug-27 00:00:00.0000, -6.288900882355434E+08, -2.431045909361301E+08, 3.662423040649505E+07,
2459825.500000000, A.D. 2022-Sep-03 00:00:00.0000, -6.252738567094017E+08, -2.500798670616031E+08, 3.612693367874619E+07,
2459832.500000000, A.D. 2022-Sep-10 00:00:00.0000, -6.215587291528828E+08, -2.570155624309251E+08, 3.562392005052717E+07,
2459839.500000000, A.D. 2022-Sep-17 00:00:00.0000, -6.177449183850540E+08, -2.639104245732059E+08, 3.511524765910733E+07,
2459846.500000000, A.D. 2022-Sep-24 00:00:00.0000, -6.138326490389993E+08, -2.707631955670339E+08, 3.460097565653853E+07,
2459853.500000000, A.D. 2022-Oct-01 00:00:00.0000, -6.098221575643646E+08, -2.775726124178046E+08, 3.408116417473023E+07,
2459860.500000000, A.D. 2022-Oct-08 00:00:00.0000, -6.057136915303468E+08, -2.843374070904778E+08, 3.355587425544058E+07,
2459867.500000000, A.D. 2022-Oct-15 00:00:00.0000, -6.015075091608474E+08, -2.910563049985054E+08, 3.302516792840356E+07,
2459874.500000000, A.D. 2022-Oct-22 00:00:00.0000, -5.972038812831424E+08, -2.977280236329257E+08, 3.248910849978919E+07,
2459881.500000000, A.D. 2022-Oct-29 00:00:00.0000, -5.928030931923338E+08, -3.043512739254303E+08, 3.194776060964489E+07,
2459888.500000000, A.D. 2022-Nov-05 00:00:00.0000, -5.883054443323655E+08, -3.109247616043745E+08, 3.140119008951171E+07,
2459895.500000000, A.D. 2022-Nov-12 00:00:00.0000, -5.837112477581569E+08, -3.174471872765945E+08, 3.084946390375382E+07,
2459902.500000000, A.D. 2022-Nov-19 00:00:00.0000, -5.790208300980245E+08, -3.239172461895691E+08, 3.029265016239454E+07,
2459909.500000000, A.D. 2022-Nov-26 00:00:00.0000, -5.742345317543664E+08, -3.303336280718567E+08, 2.973081814877781E+07,
2459916.500000000, A.D. 2022-Dec-03 00:00:00.0000, -5.693527071770357E+08, -3.366950170638286E+08, 2.916403834579913E+07,
2459923.500000000, A.D. 2022-Dec-10 00:00:00.0000, -5.643757251643335E+08, -3.430000917202912E+08, 2.859238245802887E+07,
2459930.500000000, A.D. 2022-Dec-17 00:00:00.0000, -5.593039691672088E+08, -3.492475251101419E+08, 2.801592342542264E+07,
2459937.500000000, A.D. 2022-Dec-24 00:00:00.0000, -5.541378374874455E+08, -3.554359850790131E+08, 2.743473541323203E+07,
2459944.500000000, A.D. 2022-Dec-31 00:00:00.0000, -5.488777430122558E+08, -3.615641345675173E+08, 2.684889375414108E+07,
2459951.500000000, A.D. 2023-Jan-07 00:00:00.0000, -5.435241123625164E+08, -3.676306310228049E+08, 2.625847491006717E+07,
2459958.500000000, A.D. 2023-Jan-14 00:00:00.0000, -5.380773864214392E+08, -3.736341244067955E+08, 2.566355667469250E+07,
2459965.500000000, A.D. 2023-Jan-21 00:00:00.0000, -5.325380228883109E+08, -3.795732569741962E+08, 2.506421841662845E+07,
2459972.500000000, A.D. 2023-Jan-28 00:00:00.0000, -5.269064971896589E+08, -3.854466650164089E+08, 2.446054101087533E+07,
2459979.500000000, A.D. 2023-Feb-04 00:00:00.0000, -5.211833019566718E+08, -3.912529795437778E+08, 2.385260672524433E+07,
2459986.500000000, A.D. 2023-Feb-11 00:00:00.0000, -5.153689468639476E+08, -3.969908260997611E+08, 2.324049921068461E+07,
2459993.500000000, A.D. 2023-Feb-18 00:00:00.0000, -5.094639588925421E+08, -4.026588245303669E+08, 2.262430353412950E+07,
2460000.500000000, A.D. 2023-Feb-25 00:00:00.0000, -5.034688827543466E+08, -4.082555888709521E+08, 2.200410621664687E+07,
2460007.500000000, A.D. 2023-Mar-04 00:00:00.0000, -4.973842813755333E+08, -4.137797273318827E+08, 2.137999526920174E+07,
2460014.500000000, A.D. 2023-Mar-11 00:00:00.0000, -4.912107364104040E+08, -4.192298423827878E+08, 2.075206022363150E+07,
2460021.500000000, A.D. 2023-Mar-18 00:00:00.0000, -4.849488487385020E+08, -4.246045309850702E+08, 2.012039215067658E+07,
2460028.500000000, A.D. 2023-Mar-25 00:00:00.0000, -4.785992387415704E+08, -4.299023850200462E+08, 1.948508364277643E+07,
2460035.500000000, A.D. 2023-Apr-01 00:00:00.0000, -4.721625459357045E+08, -4.351219915194637E+08, 1.884622875505432E+07,
2460042.500000000, A.D. 2023-Apr-08 00:00:00.0000, -4.656394285738705E+08, -4.402619314735043E+08, 1.820392306122857E+07,
2460049.500000000, A.D. 2023-Apr-15 00:00:00.0000, -4.590305655554117E+08, -4.453207783226141E+08, 1.755826394854167E+07,
2460056.500000000, A.D. 2023-Apr-22 00:00:00.0000, -4.523366588331911E+08, -4.502970991857345E+08, 1.690935073641679E+07,
2460063.500000000, A.D. 2023-Apr-29 00:00:00.0000, -4.455584335835775E+08, -4.551894565727301E+08, 1.625728455212051E+07,
2460070.500000000, A.D. 2023-May-06 00:00:00.0000, -4.386966378995685E+08, -4.599964088000736E+08, 1.560216827042073E+07,
2460077.500000000, A.D. 2023-May-13 00:00:00.0000, -4.317520429835405E+08, -4.647165100034707E+08, 1.494410653368241E+07,
2460084.500000000, A.D. 2023-May-20 00:00:00.0000, -4.247254436051212E+08, -4.693483102388990E+08, 1.428320579056904E+07,
2460091.500000000, A.D. 2023-May-27 00:00:00.0000, -4.176176586304768E+08, -4.738903557021081E+08, 1.361957433292374E+07,
2460098.500000000, A.D. 2023-Jun-03 00:00:00.0000, -4.104295315653769E+08, -4.783411890412558E+08, 1.295332232737923E+07,
2460105.500000000, A.D. 2023-Jun-10 00:00:00.0000, -4.031619310882714E+08, -4.826993497769876E+08, 1.228456183809775E+07,
2460112.500000000, A.D. 2023-Jun-17 00:00:00.0000, -3.958157514842822E+08, -4.869633748904497E+08, 1.161340682727751E+07,
2460119.500000000, A.D. 2023-Jun-24 00:00:00.0000, -3.883919126598782E+08, -4.911317995239112E+08, 1.093997310834974E+07,
2460126.500000000, A.D. 2023-Jul-01 00:00:00.0000, -3.808913594846590E+08, -4.952031569661970E+08, 1.026437829607317E+07,
2460133.500000000, A.D. 2023-Jul-08 00:00:00.0000, -3.733150621335738E+08, -4.991759771012457E+08, 9.586741974024117E+06,
2460140.500000000, A.D. 2023-Jul-15 00:00:00.0000, -3.656640187055831E+08, -5.030487861503694E+08, 8.907185965120494E+06,
$$EOE